start=new Date('2022-08-21T00:00:00.000Z').valueOf();
sats=[{"PERIAPSIS":"546.333","ECCENTRICITY":"0.00013400","INCLINATION":"53.0548","BSTAR":"-0.00010895000000","TLE_LINE2":"2 48442  53.0548 245.1180 0001340  70.6020 289.5114 15.06384681 71104","FILE":"3541419","DECAY_DATE":null,"MEAN_MOTION_DOT":"-0.00001903","MEAN_ELEMENT_THEORY":"SGP4","OBJECT_NAME":"STARLINK-2644","GP_ID":"210586804","TIME_SYSTEM":"UTC","SITE":"AFETR","APOAPSIS":"548.189","TLE_LINE1":"1 48442U 21040Q   22232.45935636 -.00001903  00000-0 -10895-3 0  9992","ELEMENT_SET_NO":"999","PERIOD":"95.593","ARG_OF_PERICENTER":"70.6020","EPOCH":"2022-08-20T11:01:28.389504","LAUNCH_DATE":"2021-05-09","CENTER_NAME":"EARTH","MEAN_ANOMALY":"289.5114","REV_AT_EPOCH":"7110","MEAN_MOTION_DDOT":"0.0000000000000","RA_OF_ASC_NODE":"245.1180","COUNTRY_CODE":"US","CLASSIFICATION_TYPE":"U","SEMIMAJOR_AXIS":"6925.396","OBJECT_ID":"2021-040Q","MEAN_MOTION":"15.06384681","REF_FRAME":"TEME","EPHEMERIS_TYPE":"0","OBJECT_TYPE":"PAYLOAD","NORAD_CAT_ID":"48442","RCS_SIZE":"LARGE"},{"MEAN_MOTION_DDOT":"0.0000000000000","CENTER_NAME":"EARTH","MEAN_ANOMALY":"270.4417","REV_AT_EPOCH":"7111","COUNTRY_CODE":"US","RA_OF_ASC_NODE":"244.8421","CLASSIFICATION_TYPE":"U","MEAN_MOTION":"15.06398976","SEMIMAJOR_AXIS":"6925.352","OBJECT_ID":"2021-040R","OBJECT_TYPE":"PAYLOAD","NORAD_CAT_ID":"48443","RCS_SIZE":"LARGE","REF_FRAME":"TEME","EPHEMERIS_TYPE":"0","ECCENTRICITY":"0.00011940","PERIAPSIS":"546.390","TLE_LINE2":"2 48443  53.0530 244.8421 0001194  89.6709 270.4417 15.06398976 71119","BSTAR":"0.00004215800000","INCLINATION":"53.0530","OBJECT_NAME":"STARLINK-2663","TIME_SYSTEM":"UTC","GP_ID":"210619365","FILE":"3541760","DECAY_DATE":null,"MEAN_ELEMENT_THEORY":"SGP4","MEAN_MOTION_DOT":"0.00000347","TLE_LINE1":"1 48443U 21040R   22232.52200200  .00000347  00000-0  42158-4 0  9990","ELEMENT_SET_NO":"999","EPOCH":"2022-08-20T12:31:40.972800","PERIOD":"95.592","ARG_OF_PERICENTER":"89.6709","LAUNCH_DATE":"2021-05-09","SITE":"AFETR","APOAPSIS":"548.044"},{"BSTAR":"0.00003323300000","TLE_LINE2":"2 48444  53.0529 245.7466 0001542  75.8955 284.2205 15.06394254 71083","INCLINATION":"53.0529","ECCENTRICITY":"0.00015420","PERIAPSIS":"546.163","TLE_LINE1":"1 48444U 21040S   22232.31928189  .00000213  00000-0  33233-4 0  9997","ELEMENT_SET_NO":"999","EPOCH":"2022-08-20T07:39:45.955296","PERIOD":"95.593","ARG_OF_PERICENTER":"75.8955","LAUNCH_DATE":"2021-05-09","SITE":"AFETR","APOAPSIS":"548.299","OBJECT_NAME":"STARLINK-2645","GP_ID":"210585803","TIME_SYSTEM":"UTC","FILE":"3541419","DECAY_DATE":null,"MEAN_ELEMENT_THEORY":"SGP4","MEAN_MOTION_DOT":"0.00000213","RA_OF_ASC_NODE":"245.7466","COUNTRY_CODE":"US","CLASSIFICATION_TYPE":"U","MEAN_MOTION_DDOT":"0.0000000000000","CENTER_NAME":"EARTH","MEAN_ANOMALY":"284.2205","REV_AT_EPOCH":"7108","OBJECT_TYPE":"PAYLOAD","NORAD_CAT_ID":"48444","RCS_SIZE":"LARGE","REF_FRAME":"TEME","EPHEMERIS_TYPE":"0","MEAN_MOTION":"15.06394254","SEMIMAJOR_AXIS":"6925.366","OBJECT_ID":"2021-040S"},{"ECCENTRICITY":"0.00015330","PERIAPSIS":"546.165","TLE_LINE2":"2 48445  53.0527 245.7677 0001533  70.7917 289.3238 15.06395774 71088","BSTAR":"0.00004130000000","INCLINATION":"53.0527","OBJECT_NAME":"STARLINK-2634","GP_ID":"210586053","TIME_SYSTEM":"UTC","MEAN_MOTION_DOT":"0.00000334","MEAN_ELEMENT_THEORY":"SGP4","DECAY_DATE":null,"FILE":"3541419","ELEMENT_SET_NO":"999","TLE_LINE1":"1 48445U 21040T   22232.31559427  .00000334  00000-0  41300-4 0  9991","LAUNCH_DATE":"2021-05-09","EPOCH":"2022-08-20T07:34:27.344928","PERIOD":"95.592","ARG_OF_PERICENTER":"70.7917","SITE":"AFETR","APOAPSIS":"548.288","MEAN_MOTION_DDOT":"0.0000000000000","MEAN_ANOMALY":"289.3238","CENTER_NAME":"EARTH","REV_AT_EPOCH":"7108","CLASSIFICATION_TYPE":"U","RA_OF_ASC_NODE":"245.7677","COUNTRY_CODE":"US","MEAN_MOTION":"15.06395774","SEMIMAJOR_AXIS":"6925.362","OBJECT_ID":"2021-040T","NORAD_CAT_ID":"48445","OBJECT_TYPE":"PAYLOAD","RCS_SIZE":"LARGE","EPHEMERIS_TYPE":"0","REF_FRAME":"TEME"},{"MEAN_ANOMALY":"297.6252","CENTER_NAME":"EARTH","REV_AT_EPOCH":"7111","MEAN_MOTION_DDOT":"0.0000000000000","CLASSIFICATION_TYPE":"U","RA_OF_ASC_NODE":"244.8953","COUNTRY_CODE":"US","SEMIMAJOR_AXIS":"6925.389","OBJECT_ID":"2021-040U","MEAN_MOTION":"15.06386800","EPHEMERIS_TYPE":"0","REF_FRAME":"TEME","NORAD_CAT_ID":"48446","OBJECT_TYPE":"PAYLOAD","RCS_SIZE":"LARGE","PERIAPSIS":"546.118","ECCENTRICITY":"0.00016400","INCLINATION":"53.0539","TLE_LINE2":"2 48446  53.0539 244.8953 0001640  62.4903 297.6252 15.06386800 71113","BSTAR":"0.00002449900000","MEAN_ELEMENT_THEORY":"SGP4","MEAN_MOTION_DOT":"0.00000083","DECAY_DATE":null,"FILE":"3541419","OBJECT_NAME":"STARLINK-2247","TIME_SYSTEM":"UTC","GP_ID":"210586305","SITE":"AFETR","APOAPSIS":"548.390","ELEMENT_SET_NO":"999","TLE_LINE1":"1 48446U 21040U   22232.51095841  .00000083  00000-0  24499-4 0  9990","LAUNCH_DATE":"2021-05-09","PERIOD":"95.593","EPOCH":"2022-08-20T12:15:46.806624","ARG_OF_PERICENTER":"62.4903"},{"OBJECT_TYPE":"PAYLOAD","NORAD_CAT_ID":"48447","RCS_SIZE":"LARGE","REF_FRAME":"TEME","EPHEMERIS_TYPE":"0","MEAN_MOTION":"15.06392957","SEMIMAJOR_AXIS":"6925.370","OBJECT_ID":"2021-040V","RA_OF_ASC_NODE":"243.7144","COUNTRY_CODE":"US","CLASSIFICATION_TYPE":"U","MEAN_MOTION_DDOT":"0.0000000000000","CENTER_NAME":"EARTH","MEAN_ANOMALY":"296.9290","REV_AT_EPOCH":"7115","TLE_LINE1":"1 48447U 21040V   22232.77265826 -.00001843  00000-0 -10490-3 0  9993","ELEMENT_SET_NO":"999","PERIOD":"95.593","ARG_OF_PERICENTER":"63.1883","EPOCH":"2022-08-20T18:32:37.673664","LAUNCH_DATE":"2021-05-09","SITE":"AFETR","APOAPSIS":"548.487","OBJECT_NAME":"STARLINK-2269","GP_ID":"210618866","TIME_SYSTEM":"UTC","FILE":"3541760","DECAY_DATE":null,"MEAN_MOTION_DOT":"-0.00001843","MEAN_ELEMENT_THEORY":"SGP4","TLE_LINE2":"2 48447  53.0542 243.7144 0001808  63.1883 296.9290 15.06392957 71157","BSTAR":"-0.00010490000000","INCLINATION":"53.0542","ECCENTRICITY":"0.00018080","PERIAPSIS":"545.983"},{"EPHEMERIS_TYPE":"0","REF_FRAME":"TEME","NORAD_CAT_ID":"48448","OBJECT_TYPE":"PAYLOAD","RCS_SIZE":"LARGE","SEMIMAJOR_AXIS":"6925.379","OBJECT_ID":"2021-040W","MEAN_MOTION":"15.06390126","CLASSIFICATION_TYPE":"U","RA_OF_ASC_NODE":"244.7969","COUNTRY_CODE":"US","MEAN_ANOMALY":"295.0846","CENTER_NAME":"EARTH","REV_AT_EPOCH":"7111","MEAN_MOTION_DDOT":"0.0000000000000","SITE":"AFETR","APOAPSIS":"548.308","ELEMENT_SET_NO":"999","TLE_LINE1":"1 48448U 21040W   22232.53212220 -.00000088  00000-0  13010-4 0  9999","LAUNCH_DATE":"2021-05-09","ARG_OF_PERICENTER":"65.0303","PERIOD":"95.593","EPOCH":"2022-08-20T12:46:15.358080","MEAN_ELEMENT_THEORY":"SGP4","MEAN_MOTION_DOT":"-0.00000088","DECAY_DATE":null,"FILE":"3541760","OBJECT_NAME":"STARLINK-2632","TIME_SYSTEM":"UTC","GP_ID":"210619614","INCLINATION":"53.0531","BSTAR":"0.00001301000000","TLE_LINE2":"2 48448  53.0531 244.7969 0001536  65.0303 295.0846 15.06390126 71117","PERIAPSIS":"546.180","ECCENTRICITY":"0.00015360"},{"COUNTRY_CODE":"US","RA_OF_ASC_NODE":"243.7286","CLASSIFICATION_TYPE":"U","MEAN_MOTION_DDOT":"0.0000000000000","CENTER_NAME":"EARTH","MEAN_ANOMALY":"300.2799","REV_AT_EPOCH":"7115","OBJECT_TYPE":"PAYLOAD","NORAD_CAT_ID":"48449","RCS_SIZE":"LARGE","REF_FRAME":"TEME","EPHEMERIS_TYPE":"0","MEAN_MOTION":"15.06401591","SEMIMAJOR_AXIS":"6925.344","OBJECT_ID":"2021-040X","TLE_LINE2":"2 48449  53.0545 243.7286 0001458  59.8334 300.2799 15.06401591 71151","BSTAR":"0.00001784200000","INCLINATION":"53.0545","ECCENTRICITY":"0.00014580","PERIAPSIS":"546.199","TLE_LINE1":"1 48449U 21040X   22232.76895780 -.00000016  00000-0  17842-4 0  9991","ELEMENT_SET_NO":"999","EPOCH":"2022-08-20T18:27:17.953920","PERIOD":"95.592","ARG_OF_PERICENTER":"59.8334","LAUNCH_DATE":"2021-05-09","SITE":"AFETR","APOAPSIS":"548.218","OBJECT_NAME":"STARLINK-2655","GP_ID":"210619840","TIME_SYSTEM":"UTC","FILE":"3541760","DECAY_DATE":null,"MEAN_ELEMENT_THEORY":"SGP4","MEAN_MOTION_DOT":"-0.00000016"},{"EPHEMERIS_TYPE":"0","REF_FRAME":"TEME","RCS_SIZE":"LARGE","NORAD_CAT_ID":"48450","OBJECT_TYPE":"PAYLOAD","OBJECT_ID":"2021-040Y","SEMIMAJOR_AXIS":"6925.318","MEAN_MOTION":"15.06410020","CLASSIFICATION_TYPE":"U","COUNTRY_CODE":"US","RA_OF_ASC_NODE":"243.7414","REV_AT_EPOCH":"7115","MEAN_ANOMALY":"295.9611","CENTER_NAME":"EARTH","MEAN_MOTION_DDOT":"0.0000000000000","APOAPSIS":"548.564","SITE":"AFETR","LAUNCH_DATE":"2021-05-09","PERIOD":"95.592","ARG_OF_PERICENTER":"64.1584","EPOCH":"2022-08-20T18:21:59.697792","ELEMENT_SET_NO":"999","TLE_LINE1":"1 48450U 21040Y   22232.76527428  .00004408  00000-0  31459-3 0  9991","MEAN_ELEMENT_THEORY":"SGP4","MEAN_MOTION_DOT":"0.00004408","FILE":"3541760","DECAY_DATE":null,"TIME_SYSTEM":"UTC","GP_ID":"210618616","OBJECT_NAME":"STARLINK-2660","INCLINATION":"53.0532","BSTAR":"0.00031459000000","TLE_LINE2":"2 48450  53.0532 243.7414 0001995  64.1584 295.9611 15.06410020 71154","PERIAPSIS":"545.801","ECCENTRICITY":"0.00019950"},{"PERIAPSIS":"546.282","ECCENTRICITY":"0.00013880","INCLINATION":"53.0545","BSTAR":"0.00002567800000","TLE_LINE2":"2 48451  53.0545 243.7788 0001388  76.8731 283.2413 15.06390473 71152","FILE":"3541760","DECAY_DATE":null,"MEAN_ELEMENT_THEORY":"SGP4","MEAN_MOTION_DOT":"0.00000101","OBJECT_NAME":"STARLINK-2652","TIME_SYSTEM":"UTC","GP_ID":"210619366","SITE":"AFETR","APOAPSIS":"548.204","TLE_LINE1":"1 48451U 21040Z   22232.76434450  .00000101  00000-0  25678-4 0  9997","ELEMENT_SET_NO":"999","ARG_OF_PERICENTER":"76.8731","PERIOD":"95.593","EPOCH":"2022-08-20T18:20:39.364800","LAUNCH_DATE":"2021-05-09","CENTER_NAME":"EARTH","MEAN_ANOMALY":"283.2413","REV_AT_EPOCH":"7115","MEAN_MOTION_DDOT":"0.0000000000000","RA_OF_ASC_NODE":"243.7788","COUNTRY_CODE":"US","CLASSIFICATION_TYPE":"U","SEMIMAJOR_AXIS":"6925.378","OBJECT_ID":"2021-040Z","MEAN_MOTION":"15.06390473","REF_FRAME":"TEME","EPHEMERIS_TYPE":"0","OBJECT_TYPE":"PAYLOAD","NORAD_CAT_ID":"48451","RCS_SIZE":"LARGE"}];
